{
  "type": "FeatureCollection",
  "features": [
    {
      "type": "Feature",
      "properties": {
        "norad_id": 31922,
        "name": "FENGYUN 1C DEB",
        "group": "fengyun-1c-debris",
        "lat": 72.48959186430814,
        "lon": -38.26790289131952,
        "alt_km": 922.8765770935706,
        "timestamp": "2025-12-26T12:57:39.557705+00:00",
        "meta_object_name": "FENGYUN 1C DEB",
        "meta_object_id": "1999-025CLZ",
        "meta_epoch": "2025-12-25T23:00:57.071232",
        "meta_mean_motion": 13.86657505,
        "meta_eccentricity": 0.0161386,
        "meta_inclination": 98.8062,
        "meta_ra_of_asc_node": 350.6131,
        "meta_arg_of_pericenter": 350.583,
        "meta_mean_anomaly": 63.4179,
        "meta_ephemeris_type": 0,
        "meta_classification_type": "U",
        "meta_norad_cat_id": 31922,
        "meta_element_set_no": 999,
        "meta_rev_at_epoch": 93200,
        "meta_bstar": 0.0016569,
        "meta_mean_motion_dot": 2.095e-05,
        "meta_mean_motion_ddot": 0,
        "tle_line1": "1 31922U 99025CLZ 25359.95899388  .00002095  00000+0  16569-2 0  9999",
        "tle_line2": "2 31922  98.8062 350.6131 0161386 350.5830  63.4179 13.86657505932000"
      },
      "geometry": {
        "type": "Point",
        "coordinates": [
          -38.26790289131952,
          72.48959186430814
        ]
      }
    },
    {
      "type": "Feature",
      "properties": {
        "norad_id": 31923,
        "name": "FENGYUN 1C DEB",
        "group": "fengyun-1c-debris",
        "lat": 54.76390758928898,
        "lon": -75.57556615403232,
        "alt_km": 1225.9953668059652,
        "timestamp": "2025-12-26T12:57:39.557717+00:00",
        "meta_object_name": "FENGYUN 1C DEB",
        "meta_object_id": "1999-025CMA",
        "meta_epoch": "2025-12-20T05:40:47.009280",
        "meta_mean_motion": 13.54908967,
        "meta_eccentricity": 0.0300717,
        "meta_inclination": 98.4358,
        "meta_ra_of_asc_node": 86.9011,
        "meta_arg_of_pericenter": 284.1241,
        "meta_mean_anomaly": 72.6659,
        "meta_ephemeris_type": 0,
        "meta_classification_type": "U",
        "meta_norad_cat_id": 31923,
        "meta_element_set_no": 999,
        "meta_rev_at_epoch": 63736,
        "meta_bstar": 0.0012343,
        "meta_mean_motion_dot": 1.096e-05,
        "meta_mean_motion_ddot": 0,
        "tle_line1": "1 31923U 99025CMA 25354.23665520  .00001096  00000+0  12343-2 0  9991",
        "tle_line2": "2 31923  98.4358  86.9011 0300717 284.1241  72.6659 13.54908967637364"
      },
      "geometry": {
        "type": "Point",
        "coordinates": [
          -75.57556615403232,
          54.76390758928898
        ]
      }
    },
    {
      "type": "Feature",
      "properties": {
        "norad_id": 31924,
        "name": "FENGYUN 1C DEB",
        "group": "fengyun-1c-debris",
        "lat": 54.58799031597839,
        "lon": -11.968181918387303,
        "alt_km": 923.9843000537558,
        "timestamp": "2025-12-26T12:57:39.557728+00:00",
        "meta_object_name": "FENGYUN 1C DEB",
        "meta_object_id": "1999-025CMB",
        "meta_epoch": "2025-12-24T09:19:26.838048",
        "meta_mean_motion": 13.63938046,
        "meta_eccentricity": 0.02723137,
        "meta_inclination": 98.401,
        "meta_ra_of_asc_node": 154.1733,
        "meta_arg_of_pericenter": 65.9897,
        "meta_mean_anomaly": 296.9499,
        "meta_ephemeris_type": 0,
        "meta_classification_type": "U",
        "meta_norad_cat_id": 31924,
        "meta_element_set_no": 999,
        "meta_rev_at_epoch": 91626,
        "meta_bstar": 0.0012460222,
        "meta_mean_motion_dot": 1.24e-05,
        "meta_mean_motion_ddot": 0,
        "tle_line1": "1 31924U 99025CMB 25358.38850507  .00001240  00000+0  12460-2 0  9994",
        "tle_line2": "2 31924  98.4010 154.1733 0272313  65.9897 296.9499 13.63938046916264"
      },
      "geometry": {
        "type": "Point",
        "coordinates": [
          -11.968181918387303,
          54.58799031597839
        ]
      }
    },
    {
      "type": "Feature",
      "properties": {
        "norad_id": 31926,
        "name": "FENGYUN 1C DEB",
        "group": "fengyun-1c-debris",
        "lat": -80.9171745007118,
        "lon": 176.75696110240932,
        "alt_km": 780.2423086024837,
        "timestamp": "2025-12-26T12:57:39.557738+00:00",
        "meta_object_name": "FENGYUN 1C DEB",
        "meta_object_id": "1999-025CMD",
        "meta_epoch": "2025-12-25T17:14:09.122496",
        "meta_mean_motion": 14.30877947,
        "meta_eccentricity": 0.00402358,
        "meta_inclination": 98.9563,
        "meta_ra_of_asc_node": 95.3452,
        "meta_arg_of_pericenter": 216.9967,
        "meta_mean_anomaly": 142.8439,
        "meta_ephemeris_type": 0,
        "meta_classification_type": "U",
        "meta_norad_cat_id": 31926,
        "meta_element_set_no": 999,
        "meta_rev_at_epoch": 95413,
        "meta_bstar": 0.0025288246,
        "meta_mean_motion_dot": 6.655e-05,
        "meta_mean_motion_ddot": 0,
        "tle_line1": "1 31926U 99025CMD 25359.71816114  .00006655  00000+0  25288-2 0  9997",
        "tle_line2": "2 31926  98.9563  95.3452 0040235 216.9967 142.8439 14.30877947954138"
      },
      "geometry": {
        "type": "Point",
        "coordinates": [
          176.75696110240932,
          -80.9171745007118
        ]
      }
    },
    {
      "type": "Feature",
      "properties": {
        "norad_id": 31929,
        "name": "FENGYUN 1C DEB",
        "group": "fengyun-1c-debris",
        "lat": -32.45224106830588,
        "lon": -55.507290907690454,
        "alt_km": 831.3521563840359,
        "timestamp": "2025-12-26T12:57:39.557748+00:00",
        "meta_object_name": "FENGYUN 1C DEB",
        "meta_object_id": "1999-025CME",
        "meta_epoch": "2025-12-24T04:44:53.661984",
        "meta_mean_motion": 14.34964065,
        "meta_eccentricity": 0.00737177,
        "meta_inclination": 98.7918,
        "meta_ra_of_asc_node": 127.7563,
        "meta_arg_of_pericenter": 21.677,
        "meta_mean_anomaly": 338.7508,
        "meta_ephemeris_type": 0,
        "meta_classification_type": "U",
        "meta_norad_cat_id": 31929,
        "meta_element_set_no": 999,
        "meta_rev_at_epoch": 70810,
        "meta_bstar": 0.00040479612,
        "meta_mean_motion_dot": 1.142e-05,
        "meta_mean_motion_ddot": 0,
        "tle_line1": "1 31929U 99025CME 25358.19784331  .00001142  00000+0  40480-3 0  9994",
        "tle_line2": "2 31929  98.7918 127.7563 0073717  21.6770 338.7508 14.34964065708109"
      },
      "geometry": {
        "type": "Point",
        "coordinates": [
          -55.507290907690454,
          -32.45224106830588
        ]
      }
    },
    {
      "type": "Feature",
      "properties": {
        "norad_id": 31931,
        "name": "FENGYUN 1C DEB",
        "group": "fengyun-1c-debris",
        "lat": 52.88864313282409,
        "lon": -62.513012719420296,
        "alt_km": 1410.461983663642,
        "timestamp": "2025-12-26T12:57:39.557760+00:00",
        "meta_object_name": "FENGYUN 1C DEB",
        "meta_object_id": "1999-025CMG",
        "meta_epoch": "2025-12-23T02:24:09.253440",
        "meta_mean_motion": 13.42631589,
        "meta_eccentricity": 0.0422514,
        "meta_inclination": 97.8147,
        "meta_ra_of_asc_node": 305.2675,
        "meta_arg_of_pericenter": 242.6444,
        "meta_mean_anomaly": 113.1098,
        "meta_ephemeris_type": 0,
        "meta_classification_type": "U",
        "meta_norad_cat_id": 31931,
        "meta_element_set_no": 999,
        "meta_rev_at_epoch": 65361,
        "meta_bstar": 0.00051347655,
        "meta_mean_motion_dot": 4.63e-06,
        "meta_mean_motion_ddot": 0,
        "tle_line1": "1 31931U 99025CMG 25357.10010710  .00000463  00000+0  51348-3 0  9990",
        "tle_line2": "2 31931  97.8147 305.2675 0422514 242.6444 113.1098 13.42631589653613"
      },
      "geometry": {
        "type": "Point",
        "coordinates": [
          -62.513012719420296,
          52.88864313282409
        ]
      }
    },
    {
      "type": "Feature",
      "properties": {
        "norad_id": 31934,
        "name": "FENGYUN 1C DEB",
        "group": "fengyun-1c-debris",
        "lat": -54.34015370490799,
        "lon": -140.59925990213927,
        "alt_km": 531.8044231321282,
        "timestamp": "2025-12-26T12:57:39.557770+00:00",
        "meta_object_name": "FENGYUN 1C DEB",
        "meta_object_id": "1999-025CMK",
        "meta_epoch": "2025-12-17T14:29:22.520832",
        "meta_mean_motion": 15.0735698,
        "meta_eccentricity": 0.00367266,
        "meta_inclination": 98.8801,
        "meta_ra_of_asc_node": 41.6776,
        "meta_arg_of_pericenter": 217.4543,
        "meta_mean_anomaly": 142.4121,
        "meta_ephemeris_type": 0,
        "meta_classification_type": "U",
        "meta_norad_cat_id": 31934,
        "meta_element_set_no": 999,
        "meta_rev_at_epoch": 60916,
        "meta_bstar": 0.0026504952,
        "meta_mean_motion_dot": 0.00040819,
        "meta_mean_motion_ddot": 0,
        "tle_line1": "1 31934U 99025CMK 25351.60373288  .00040819  00000+0  26505-2 0  9999",
        "tle_line2": "2 31934  98.8801  41.6776 0036726 217.4543 142.4121 15.07356980609168"
      },
      "geometry": {
        "type": "Point",
        "coordinates": [
          -140.59925990213927,
          -54.34015370490799
        ]
      }
    }
  ]
}